{
  "type": "FeatureCollection",
  "features": [
    {
      "type": "Feature",
      "properties": {
        "norad_id": 36046,
        "name": "COSMOS 2251 DEB",
        "group": "cosmos-2251-debris",
        "lat": -33.848617355951205,
        "lon": 116.24625675255842,
        "alt_km": 713.300182945899,
        "timestamp": "2025-12-08T05:48:09.430629+00:00",
        "meta_object_name": "COSMOS 2251 DEB",
        "meta_object_id": "1993-036AXH",
        "meta_epoch": "2025-12-07T14:53:37.140000",
        "meta_mean_motion": 14.65217113,
        "meta_eccentricity": 0.00554066,
        "meta_inclination": 74.0172,
        "meta_ra_of_asc_node": 286.36,
        "meta_arg_of_pericenter": 73.7608,
        "meta_mean_anomaly": 105.7765,
        "meta_ephemeris_type": 0,
        "meta_classification_type": "U",
        "meta_norad_cat_id": 36046,
        "meta_element_set_no": 999,
        "meta_rev_at_epoch": 63928,
        "meta_bstar": 0.0010874052,
        "meta_mean_motion_dot": 5.963e-05,
        "meta_mean_motion_ddot": 0,
        "tle_line1": "1 36046U 93036AXH 25341.62056875  .00005963  00000+0  10874-2 0  9998",
        "tle_line2": "2 36046  74.0172 286.3600 0055406  73.7608 105.7765 14.65217113639288"
      },
      "geometry": {
        "type": "Point",
        "coordinates": [
          116.24625675255842,
          -33.848617355951205
        ]
      }
    },
    {
      "type": "Feature",
      "properties": {
        "norad_id": 36047,
        "name": "COSMOS 2251 DEB",
        "group": "cosmos-2251-debris",
        "lat": 11.958003906994168,
        "lon": -13.284289736382812,
        "alt_km": 575.7421290949806,
        "timestamp": "2025-12-08T05:48:09.430639+00:00",
        "meta_object_name": "COSMOS 2251 DEB",
        "meta_object_id": "1993-036AXJ",
        "meta_epoch": "2025-12-07T07:16:20.320608",
        "meta_mean_motion": 14.95604357,
        "meta_eccentricity": 0.00080307,
        "meta_inclination": 74.0361,
        "meta_ra_of_asc_node": 345.134,
        "meta_arg_of_pericenter": 10.1198,
        "meta_mean_anomaly": 350.0147,
        "meta_ephemeris_type": 0,
        "meta_classification_type": "U",
        "meta_norad_cat_id": 36047,
        "meta_element_set_no": 999,
        "meta_rev_at_epoch": 65858,
        "meta_bstar": 0.0028046343,
        "meta_mean_motion_dot": 0.00031273,
        "meta_mean_motion_ddot": 0,
        "tle_line1": "1 36047U 93036AXJ 25341.30301297  .00031273  00000+0  28046-2 0  9998",
        "tle_line2": "2 36047  74.0361 345.1340 0008030  10.1198 350.0147 14.95604357658580"
      },
      "geometry": {
        "type": "Point",
        "coordinates": [
          -13.284289736382812,
          11.958003906994168
        ]
      }
    },
    {
      "type": "Feature",
      "properties": {
        "norad_id": 36048,
        "name": "COSMOS 2251 DEB",
        "group": "cosmos-2251-debris",
        "lat": 19.765423233735486,
        "lon": 121.66102355816574,
        "alt_km": 783.1663914728797,
        "timestamp": "2025-12-08T05:48:09.430649+00:00",
        "meta_object_name": "COSMOS 2251 DEB",
        "meta_object_id": "1993-036AXK",
        "meta_epoch": "2025-12-07T14:36:21.153024",
        "meta_mean_motion": 14.37837835,
        "meta_eccentricity": 0.0026381,
        "meta_inclination": 74.0564,
        "meta_ra_of_asc_node": 308.721,
        "meta_arg_of_pericenter": 359.8811,
        "meta_mean_anomaly": 123.0746,
        "meta_ephemeris_type": 0,
        "meta_classification_type": "U",
        "meta_norad_cat_id": 36048,
        "meta_element_set_no": 999,
        "meta_rev_at_epoch": 85428,
        "meta_bstar": 0.00053688465,
        "meta_mean_motion_dot": 1.599e-05,
        "meta_mean_motion_ddot": 0,
        "tle_line1": "1 36048U 93036AXK 25341.60857816  .00001599  00000+0  53688-3 0  9994",
        "tle_line2": "2 36048  74.0564 308.7210 0026381 359.8811 123.0746 14.37837835854284"
      },
      "geometry": {
        "type": "Point",
        "coordinates": [
          121.66102355816574,
          19.765423233735486
        ]
      }
    },
    {
      "type": "Feature",
      "properties": {
        "norad_id": 36049,
        "name": "COSMOS 2251 DEB",
        "group": "cosmos-2251-debris",
        "lat": -50.22841106476354,
        "lon": -32.07857215881396,
        "alt_km": 685.7684040302147,
        "timestamp": "2025-12-08T05:48:09.430659+00:00",
        "meta_object_name": "COSMOS 2251 DEB",
        "meta_object_id": "1993-036AXL",
        "meta_epoch": "2025-12-06T10:02:31.964064",
        "meta_mean_motion": 14.62007572,
        "meta_eccentricity": 0.00110936,
        "meta_inclination": 74.0303,
        "meta_ra_of_asc_node": 131.2879,
        "meta_arg_of_pericenter": 216.0889,
        "meta_mean_anomaly": 143.953,
        "meta_ephemeris_type": 0,
        "meta_classification_type": "U",
        "meta_norad_cat_id": 36049,
        "meta_element_set_no": 999,
        "meta_rev_at_epoch": 85272,
        "meta_bstar": 0.0027130423,
        "meta_mean_motion_dot": 0.00013616,
        "meta_mean_motion_ddot": 0,
        "tle_line1": "1 36049U 93036AXL 25340.41842551  .00013616  00000+0  27130-2 0  9998",
        "tle_line2": "2 36049  74.0303 131.2879 0011093 216.0889 143.9530 14.62007572852723"
      },
      "geometry": {
        "type": "Point",
        "coordinates": [
          -32.07857215881396,
          -50.22841106476354
        ]
      }
    },
    {
      "type": "Feature",
      "properties": {
        "norad_id": 36050,
        "name": "COSMOS 2251 DEB",
        "group": "cosmos-2251-debris",
        "lat": 34.3215252395989,
        "lon": -145.5415262092299,
        "alt_km": 584.3502031286635,
        "timestamp": "2025-12-08T05:48:09.430669+00:00",
        "meta_object_name": "COSMOS 2251 DEB",
        "meta_object_id": "1993-036AXM",
        "meta_epoch": "2025-12-06T21:38:56.903136",
        "meta_mean_motion": 15.00909589,
        "meta_eccentricity": 0.00890187,
        "meta_inclination": 74.0309,
        "meta_ra_of_asc_node": 205.9114,
        "meta_arg_of_pericenter": 286.8649,
        "meta_mean_anomaly": 72.279,
        "meta_ephemeris_type": 0,
        "meta_classification_type": "U",
        "meta_norad_cat_id": 36050,
        "meta_element_set_no": 999,
        "meta_rev_at_epoch": 66947,
        "meta_bstar": 0.00085100321,
        "meta_mean_motion_dot": 0.00011772,
        "meta_mean_motion_ddot": 0,
        "tle_line1": "1 36050U 93036AXM 25340.90204749  .00011772  00000+0  85100-3 0  9998",
        "tle_line2": "2 36050  74.0309 205.9114 0089018 286.8649  72.2790 15.00909589669475"
      },
      "geometry": {
        "type": "Point",
        "coordinates": [
          -145.5415262092299,
          34.3215252395989
        ]
      }
    },
    {
      "type": "Feature",
      "properties": {
        "norad_id": 36053,
        "name": "COSMOS 2251 DEB",
        "group": "cosmos-2251-debris",
        "lat": -63.55821730721841,
        "lon": 125.7289412523247,
        "alt_km": 732.7627236316011,
        "timestamp": "2025-12-08T05:48:09.430703+00:00",
        "meta_object_name": "COSMOS 2251 DEB",
        "meta_object_id": "1993-036AXQ",
        "meta_epoch": "2025-12-07T18:35:05.079840",
        "meta_mean_motion": 14.57073871,
        "meta_eccentricity": 0.00329405,
        "meta_inclination": 73.8696,
        "meta_ra_of_asc_node": 162.2116,
        "meta_arg_of_pericenter": 112.9902,
        "meta_mean_anomaly": 247.4742,
        "meta_ephemeris_type": 0,
        "meta_classification_type": "U",
        "meta_norad_cat_id": 36053,
        "meta_element_set_no": 999,
        "meta_rev_at_epoch": 87372,
        "meta_bstar": 0.0027216261,
        "meta_mean_motion_dot": 0.0001234,
        "meta_mean_motion_ddot": 0,
        "tle_line1": "1 36053U 93036AXQ 25341.77436435  .00012340  00000+0  27216-2 0  9991",
        "tle_line2": "2 36053  73.8696 162.2116 0032940 112.9902 247.4742 14.57073871873729"
      },
      "geometry": {
        "type": "Point",
        "coordinates": [
          125.7289412523247,
          -63.55821730721841
        ]
      }
    },
    {
      "type": "Feature",
      "properties": {
        "norad_id": 36058,
        "name": "COSMOS 2251 DEB",
        "group": "cosmos-2251-debris",
        "lat": 31.03101044515863,
        "lon": 51.95623410216688,
        "alt_km": 721.4530774119576,
        "timestamp": "2025-12-08T05:48:09.430714+00:00",
        "meta_object_name": "COSMOS 2251 DEB",
        "meta_object_id": "1993-036AXV",
        "meta_epoch": "2025-12-07T13:11:34.398816",
        "meta_mean_motion": 14.58652352,
        "meta_eccentricity": 0.00449501,
        "meta_inclination": 74.0237,
        "meta_ra_of_asc_node": 43.35,
        "meta_arg_of_pericenter": 178.9506,
        "meta_mean_anomaly": 181.1762,
        "meta_ephemeris_type": 0,
        "meta_classification_type": "U",
        "meta_norad_cat_id": 36058,
        "meta_element_set_no": 999,
        "meta_rev_at_epoch": 66035,
        "meta_bstar": 0.0010227034,
        "meta_mean_motion_dot": 4.806e-05,
        "meta_mean_motion_ddot": 0,
        "tle_line1": "1 36058U 93036AXV 25341.54970369  .00004806  00000+0  10227-2 0  9992",
        "tle_line2": "2 36058  74.0237  43.3500 0044950 178.9506 181.1762 14.58652352660357"
      },
      "geometry": {
        "type": "Point",
        "coordinates": [
          51.95623410216688,
          31.03101044515863
        ]
      }
    }
  ]
}